ALOS-2                  
1 39766U 14029A   26181.86863941  .00000732  00000+0  10488-3 0  9995
2 39766  97.9232 278.8362 0001598  87.5110 272.6284 14.79474729653601
KAZEOSAT 2              
1 40010U 14033A   26182.98187029  .00001270  00000+0  15295-3 0  9993
2 40010  97.5393  21.8116 0006973 272.3476  87.6941 14.85488874651158
HODOYOSHI-4             
1 40011U 14033B   26182.96122209  .00000914  00000+0  10451-3 0  9994
2 40011  97.5449   7.0708 0021964 256.4036 103.4735 14.88161087651005
DEIMOS-2                
1 40013U 14033D   26182.92040236  .00001491  00000+0  14589-3 0  9998
2 40013  97.5807  56.8908 0000815  67.5560 292.5747 14.93762476639929
HODOYOSHI-3             
1 40015U 14033F   26182.93753598  .00000979  00000+0  11879-3 0  9992
2 40015  97.6433 345.3855 0031591 307.6346  52.2003 14.85417120649818
SPOT 7                  
1 40053U 14034A   26182.90666038  .00000339  00000+0  78513-4 0  9993
2 40053  98.0625 245.0187 0001419  97.2182 262.9180 14.60970478639287
SKYSAT-B                
1 40072U 14037D   26182.85135210  .00001418  00000+0  16092-3 0  9996
2 40072  98.3845 142.6529 0004544 220.1201 139.9679 14.88064613648144
WORLDVIEW-3 (WV-3)      
1 40115U 14048A   26182.92354747  .00000957  00000+0  11839-3 0  9993
2 40115  97.8563 257.5529 0000227 167.2900 192.8321 14.85046237644091
GAOFEN-2                
1 40118U 14049A   26182.97359942 -.00000038  00000+0  20624-5 0  9999
2 40118  98.0107 247.1663 0007199 174.3740 185.7555 14.80912385641426
YAOGAN-21               
1 40143U 14053A   26182.97752253  .00008319  00000+0  32005-3 0  9997
2 40143  97.1463 222.5789 0009161  50.7923 309.4129 15.26592329657215
YAOGAN-22               
1 40275U 14063A   26182.93959191 -.00000058  00000+0 -30047-4 0  9999
2 40275 100.7744 334.4589 0006656 153.1561 206.9896 13.15531245561758
ASNARO                  
1 40298U 14070A   26182.91007903  .00008044  00000+0  38008-3 0  9990
2 40298  97.3452 258.6271 0006646 122.9082 237.2794 15.19650601646242
YAOGAN-24               
1 40310U 14072A   26182.92675837  .00000336  00000+0  56339-4 0  9999
2 40310  98.1508 320.3893 0013564 213.2418 146.7940 14.76101904625893
CBERS 4                 
1 40336U 14079A   26182.95340884  .00000013  00000+0  19361-4 0  9994
2 40336  98.3527 239.3213 0001343  52.4938 307.6370 14.35512720606072
YAOGAN-26               
1 40362U 14088A   26182.94012644  .00034838  00000+0  66704-3 0  9996
2 40362  97.0637 182.8091 0004016  32.4314 327.7183 15.47962786639987
SMAP                    
1 40376U 15003A   26182.98587567  .00000457  00000+0  97544-4 0  9991
2 40376  98.1277 189.8708 0001468  97.0883 263.0486 14.63379633609785
KOMPSAT-3A              
1 40536U 15014A   26182.92017234  .00033859  00000+0  47451-3 0  9997
2 40536  97.6885 175.3669 0057123 122.1594 238.5219 15.54742381624105
SENTINEL-2A             
1 40697U 15028A   26182.96993940  .00000009  00000+0  20006-4 0  9990
2 40697  98.5687 257.6115 0001214  96.2489 263.8832 14.30818854575847
GAOFEN-8                
1 40701U 15030A   26182.97256598  .00021303  00000+0  42993-3 0  9999
2 40701  97.6890  17.2344 0009748 136.7254 223.4762 15.46497977613735
CARBONITE 1 (CBNT-1)    
1 40718U 15032D   26182.95290738  .00001261  00000+0  15888-3 0  9995
2 40718  97.6507   0.4013 0012967 244.4223 115.5652 14.83630672591538
YAOGAN-27               
1 40878U 15040A   26182.92863956  .00000266  00000+0  81287-3 0  9996
2 40878 100.1154 168.6717 0008137 175.0002 185.1195 13.16072127519602
GAOFEN-9 01             
1 40894U 15047A   26182.97502999  .00001111  00000+0  14227-3 0  9993
2 40894  97.6268 217.9975 0028895  91.6499 268.8025 14.82913179582387
YAOGAN-28               
1 41026U 15064A   26182.93112655  .00008483  00000+0  31630-3 0  9998
2 41026  97.3097 320.8946 0011758 134.1734 226.0474 15.27609823592933
YAOGAN-29               
1 41038U 15069A   26182.95326689 -.00000168  00000+0 -14010-4 0  9990
2 41038  98.0018 211.6086 0001751  30.4809 329.6506 14.83094565572815
KENT RIDGE 1            
1 41167U 15077B   26182.96283725  .00004343  00000+0  14661-3 0  9994
2 41167  14.9782 156.0909 0008154  87.7044 272.4212 15.23218381583358
GAOFEN-4                
1 41194U 15083A   26182.60549609 -.00000324  00000+0  00000+0 0  9992
2 41194   0.3936  83.8387 0004243 111.7154  47.7566  1.00268667 38677
JASON-3                 
1 41240U 16002A   26182.91537883 -.00000034  00000+0  11267-3 0  9990
2 41240  66.0416  94.8720 0008325 271.9383  88.0682 12.87623252489143
SENTINEL-3A             
1 41335U 16011A   26182.94384544  .00000124  00000+0  69261-4 0  9999
2 41335  98.6244 250.1152 0001437  94.9494 265.1850 14.26736714540165
ZIYUAN 3-02 (ZY 3-02)   
1 41556U 16033A   26182.98950576  .00005996  00000+0  27037-3 0  9992
2 41556  97.3833 258.4791 0012811 233.2287 126.7773 15.21321116560234
CARTOSAT-2C             
1 41599U 16040A   26182.94583208  .00004360  00000+0  20948-3 0  9995
2 41599  97.4479 242.7207 0010529  87.2639 272.9800 15.19306441555957
