OBJECT_NAME,OBJECT_ID,EPOCH,MEAN_MOTION,ECCENTRICITY,INCLINATION,RA_OF_ASC_NODE,ARG_OF_PERICENTER,MEAN_ANOMALY,EPHEMERIS_TYPE,CLASSIFICATION_TYPE,NORAD_CAT_ID,ELEMENT_SET_NO,REV_AT_EPOCH,BSTAR,MEAN_MOTION_DOT,MEAN_MOTION_DDOT
ALOS-2,2014-029A,2026-06-30T20:50:50.445024,14.79474729,.0001598,97.9232,278.8362,87.5110,272.6284,0,U,39766,999,65360,.10488E-3,.732E-5,0
KAZEOSAT 2,2014-033A,2026-07-01T23:33:53.593056,14.85488874,.00069731,97.5393,21.8116,272.3476,87.6941,0,U,40010,999,65115,.15294931E-3,.127E-4,0
HODOYOSHI-4,2014-033B,2026-07-01T23:04:09.588576,14.88161087,.00219645,97.5449,7.0708,256.4036,103.4735,0,U,40011,999,65100,.10451373E-3,.914E-5,0
DEIMOS-2,2014-033D,2026-07-01T22:05:22.763904,14.93762476,.00008159,97.5807,56.8908,67.5560,292.5747,0,U,40013,999,63992,.14589168E-3,.1491E-4,0
HODOYOSHI-3,2014-033F,2026-07-01T22:30:03.108672,14.85417120,.00315916,97.6433,345.3855,307.6346,52.2003,0,U,40015,999,64981,.11879332E-3,.979E-5,0
SPOT 7,2014-034A,2026-07-01T21:45:35.456832,14.60970478,.00014191,98.0625,245.0187,97.2182,262.9180,0,U,40053,999,63928,.78512719E-4,.339E-5,0
SKYSAT-B,2014-037D,2026-07-01T20:25:56.821440,14.88064613,.00045445,98.3845,142.6529,220.1201,139.9679,0,U,40072,999,64814,.16091917E-3,.1418E-4,0
WORLDVIEW-3 (WV-3),2014-048A,2026-07-01T22:09:54.501408,14.85046237,.00002279,97.8563,257.5529,167.2900,192.8321,0,U,40115,999,64409,.11839095E-3,.957E-5,0
GAOFEN-2,2014-049A,2026-07-01T23:21:58.989888,14.80912385,.00071991,98.0107,247.1663,174.3740,185.7555,0,U,40118,999,64142,.2062356E-5,-.38E-6,0
YAOGAN-21,2014-053A,2026-07-01T23:27:37.946592,15.26592329,.0009161,97.1463,222.5789,50.7923,309.4129,0,U,40143,999,65721,.32004566E-3,.8319E-4,0
YAOGAN-22,2014-063A,2026-07-01T22:33:00.741024,13.15531245,.00066564,100.7744,334.4589,153.1561,206.9896,0,U,40275,999,56175,-.30047271E-4,-.58E-6,0
ASNARO,2014-070A,2026-07-01T21:50:30.828192,15.19650601,.00066466,97.3452,258.6271,122.9082,237.2794,0,U,40298,999,64624,.38007568E-3,.8044E-4,0
YAOGAN-24,2014-072A,2026-07-01T22:14:31.923168,14.76101904,.00135646,98.1508,320.3893,213.2418,146.7940,0,U,40310,999,62589,.56339028E-4,.336E-5,0
CBERS 4,2014-079A,2026-07-01T22:52:54.523776,14.35512720,.00013435,98.3527,239.3213,52.4938,307.6370,0,U,40336,999,60607,.19360781E-4,.13E-6,0
YAOGAN-26,2014-088A,2026-07-01T22:33:46.924416,15.47962786,.00040163,97.0637,182.8091,32.4314,327.7183,0,U,40362,999,63998,.66703636E-3,.34838E-3,0
SMAP,2015-003A,2026-07-01T23:39:39.657888,14.63379633,.0001468,98.1277,189.8708,97.0883,263.0486,0,U,40376,999,60978,.97544354E-4,.457E-5,0
KOMPSAT-3A,2015-014A,2026-07-01T22:05:02.890176,15.54742381,.00571236,97.6885,175.3669,122.1594,238.5219,0,U,40536,999,62410,.47451003E-3,.33859E-3,0
SENTINEL-2A,2015-028A,2026-07-01T23:16:42.764160,14.30818854,.00012149,98.5687,257.6115,96.2489,263.8832,0,U,40697,999,57584,.20006053E-4,.9E-7,0
GAOFEN-8,2015-030A,2026-07-01T23:20:29.700672,15.46497977,.00097485,97.6890,17.2344,136.7254,223.4762,0,U,40701,999,61373,.42993075E-3,.21303E-3,0
CARBONITE 1 (CBNT-1),2015-032D,2026-07-01T22:52:11.197632,14.83630672,.00129674,97.6507,0.4013,244.4223,115.5652,0,U,40718,999,59153,.15887821E-3,.1261E-4,0
YAOGAN-27,2015-040A,2026-07-01T22:17:14.457984,13.16072127,.0008137,100.1154,168.6717,175.0002,185.1195,0,U,40878,999,51960,.81287387E-3,.266E-5,0
GAOFEN-9 01,2015-047A,2026-07-01T23:24:02.591136,14.82913179,.00288957,97.6268,217.9975,91.6499,268.8025,0,U,40894,999,58238,.14226831E-3,.1111E-4,0
YAOGAN-28,2015-064A,2026-07-01T22:20:49.333920,15.27609823,.00117585,97.3097,320.8946,134.1734,226.0474,0,U,41026,999,59293,.31629603E-3,.8483E-4,0
YAOGAN-29,2015-069A,2026-07-01T22:52:42.259296,14.83094565,.00017517,98.0018,211.6086,30.4809,329.6506,0,U,41038,999,57281,-.14009594E-4,-.168E-5,0
KENT RIDGE 1,2015-077B,2026-07-01T23:06:29.138400,15.23218381,.00081548,14.9782,156.0909,87.7044,272.4212,0,U,41167,999,58335,.14661103E-3,.4343E-4,0
GAOFEN-4,2015-083A,2026-07-01T14:31:54.862176,1.00268667,.00042432,0.3936,83.8387,111.7154,47.7566,0,U,41194,999,3867,0,-.324E-5,0
JASON-3,2016-002A,2026-07-01T21:58:08.730912,12.87623252,.00083255,66.0416,94.8720,271.9383,88.0682,0,U,41240,999,48914,.11267046E-3,-.34E-6,0
SENTINEL-3A,2016-011A,2026-07-01T22:39:08.246016,14.26736714,.00014373,98.6244,250.1152,94.9494,265.1850,0,U,41335,999,54016,.69261328E-4,.124E-5,0
ZIYUAN 3-02 (ZY 3-02),2016-033A,2026-07-01T23:44:53.297664,15.21321116,.00128117,97.3833,258.4791,233.2287,126.7773,0,U,41556,999,56023,.27037438E-3,.5996E-4,0
CARTOSAT-2C,2016-040A,2026-07-01T22:41:59.891712,15.19306441,.00105292,97.4479,242.7207,87.2639,272.9800,0,U,41599,999,55595,.20948187E-3,.436E-4,0
